{"type": "FeatureCollection", "features": [ {"type": "Feature", "properties": {"norad_id": 60453, "name": "LEGION 4", "group": "resource", "lat": -16.3523778915362, "lon": -98.75875901865618, "alt_km": 520.0616855797443, "timestamp": "2025-12-08T13:49:31.451278+00:00", "meta": {"OBJECT_NAME": "LEGION 4", "OBJECT_ID": "2024-146B", "EPOCH": "2025-12-08T06:36:15.710112", "MEAN_MOTION": 15.15753032, "ECCENTRICITY": 0.00098738, "INCLINATION": 45.0388, "RA_OF_ASC_NODE": 65.8031, "ARG_OF_PERICENTER": 287.731, "MEAN_ANOMALY": 72.2491, "EPHEMERIS_TYPE": 0, "CLASSIFICATION_TYPE": "U", "NORAD_CAT_ID": 60453, "ELEMENT_SET_NO": 999, "REV_AT_EPOCH": 7190, "BSTAR": 0.00037405461, "MEAN_MOTION_DOT": 7.005e-05, "MEAN_MOTION_DDOT": 0}, "tle": {"line1": "1 60453U 24146B   25342.27518183  .00007005  00000+0  37405-3 0  9999", "line2": "2 60453  45.0388  65.8031 0009873 287.7310  72.2491 15.15753032 71900"}}, "geometry": {"type": "Point", "coordinates": [-98.75875901865618, -16.3523778915362]}}, {"type": "Feature", "properties": {"norad_id": 60989, "name": "SENTINEL-2C", "group": "resource", "lat": 10.82393726979841, "lon": -123.22963871020691, "alt_km": 790.1829237138054, "timestamp": "2025-12-08T13:49:31.451299+00:00", "meta": {"OBJECT_NAME": "SENTINEL-2C", "OBJECT_ID": "2024-157A", "EPOCH": "2025-12-08T04:38:48.682464", "MEAN_MOTION": 14.30814761, "ECCENTRICITY": 0.00011517, "INCLINATION": 98.5686, "RA_OF_ASC_NODE": 54.7416, "ARG_OF_PERICENTER": 97.3703, "MEAN_ANOMALY": 262.7611, "EPHEMERIS_TYPE": 0, "CLASSIFICATION_TYPE": "U", "NORAD_CAT_ID": 60989, "ELEMENT_SET_NO": 999, "REV_AT_EPOCH": 6567, "BSTAR": 0.00013496764, "MEAN_MOTION_DOT": 3.1e-06, "MEAN_MOTION_DDOT": 0}, "tle": {"line1": "1 60989U 24157A   25342.19361901  .00000310  00000+0  13497-3 0  9997", "line2": "2 60989  98.5686  54.7416 0001151  97.3703 262.7611 14.30814761 65674"}}, "geometry": {"type": "Point", "coordinates": [-123.22963871020691, 10.82393726979841]}}, {"type": "Feature", "properties": {"norad_id": 61735, "name": "IONOSFERA-M 1", "group": "resource", "lat": -16.455235520642137, "lon": 29.85134897721134, "alt_km": 821.8137249797992, "timestamp": "2025-12-08T13:49:31.451311+00:00", "meta": {"OBJECT_NAME": "IONOSFERA-M 1", "OBJECT_ID": "2024-199A", "EPOCH": "2025-12-08T06:09:10.933920", "MEAN_MOTION": 14.22712631, "ECCENTRICITY": 0.00011724, "INCLINATION": 98.7414, "RA_OF_ASC_NODE": 212.1389, "ARG_OF_PERICENTER": 27.9592, "MEAN_ANOMALY": 332.1649, "EPHEMERIS_TYPE": 0, "CLASSIFICATION_TYPE": "U", "NORAD_CAT_ID": 61735, "ELEMENT_SET_NO": 999, "REV_AT_EPOCH": 10055, "BSTAR": 9.3112825e-05, "MEAN_MOTION_DOT": 1.64e-06, "MEAN_MOTION_DDOT": 0}, "tle": {"line1": "1 61735U 24199A   25342.25637655  .00000164  00000+0  93113-4 0  9993", "line2": "2 61735  98.7414 212.1389 0001172  27.9592 332.1649 14.22712631100556"}}, "geometry": {"type": "Point", "coordinates": [29.85134897721134, -16.455235520642137]}}, {"type": "Feature", "properties": {"norad_id": 61736, "name": "IONOSFERA-M 2", "group": "resource", "lat": 18.81180627967102, "lon": -150.6358284754687, "alt_km": 816.4879029962885, "timestamp": "2025-12-08T13:49:31.451321+00:00", "meta": {"OBJECT_NAME": "IONOSFERA-M 2", "OBJECT_ID": "2024-199B", "EPOCH": "2025-12-08T06:59:04.894368", "MEAN_MOTION": 14.22714772, "ECCENTRICITY": 0.00015379, "INCLINATION": 98.7412, "RA_OF_ASC_NODE": 212.0858, "ARG_OF_PERICENTER": 115.9464, "MEAN_ANOMALY": 244.1873, "EPHEMERIS_TYPE": 0, "CLASSIFICATION_TYPE": "U", "NORAD_CAT_ID": 61736, "ELEMENT_SET_NO": 999, "REV_AT_EPOCH": 10368, "BSTAR": 9.3691177e-05, "MEAN_MOTION_DOT": 1.66e-06, "MEAN_MOTION_DDOT": 0}, "tle": {"line1": "1 61736U 24199B   25342.29102887  .00000166  00000+0  93691-4 0  9995", "line2": "2 61736  98.7412 212.0858 0001537 115.9464 244.1873 14.22714772103682"}}, "geometry": {"type": "Point", "coordinates": [-150.6358284754687, 18.81180627967102]}}, {"type": "Feature", "properties": {"norad_id": 63772, "name": "BIOMASS", "group": "resource", "lat": -77.77085011187431, "lon": -53.244968093398434, "alt_km": 677.1136600717964, "timestamp": "2025-12-08T13:49:31.451332+00:00", "meta": {"OBJECT_NAME": "BIOMASS", "OBJECT_ID": "2025-090A", "EPOCH": "2025-12-08T06:05:42.869760", "MEAN_MOTION": 14.67542206, "ECCENTRICITY": 0.00012268, "INCLINATION": 98.0701, "RA_OF_ASC_NODE": 167.3288, "ARG_OF_PERICENTER": 75.8581, "MEAN_ANOMALY": 284.276, "EPHEMERIS_TYPE": 0, "CLASSIFICATION_TYPE": "U", "NORAD_CAT_ID": 63772, "ELEMENT_SET_NO": 999, "REV_AT_EPOCH": 3268, "BSTAR": 0.00048516478, "MEAN_MOTION_DOT": 2.704e-05, "MEAN_MOTION_DDOT": 0}, "tle": {"line1": "1 63772U 25090A   25342.25396840  .00002704  00000+0  48516-3 0  9993", "line2": "2 63772  98.0701 167.3288 0001226  75.8581 284.2760 14.67542206 32687"}}, "geometry": {"type": "Point", "coordinates": [-53.244968093398434, -77.77085011187431]}}, {"type": "Feature", "properties": {"norad_id": 64694, "name": "GOSAT-GW (IBUKI GW)", "group": "resource", "lat": 68.56428681062751, "lon": 119.27200392835269, "alt_km": 661.2603812297984, "timestamp": "2025-12-08T13:49:31.451342+00:00", "meta": {"OBJECT_NAME": "GOSAT-GW (IBUKI GW)", "OBJECT_ID": "2025-141A", "EPOCH": "2025-12-08T06:46:52.173120", "MEAN_MOTION": 14.67563212, "ECCENTRICITY": 0.00014947, "INCLINATION": 98.0423, "RA_OF_ASC_NODE": 277.8764, "ARG_OF_PERICENTER": 82.469, "MEAN_ANOMALY": 277.6684, "EPHEMERIS_TYPE": 0, "CLASSIFICATION_TYPE": "U", "NORAD_CAT_ID": 64694, "ELEMENT_SET_NO": 999, "REV_AT_EPOCH": 2384, "BSTAR": 0.00037470327, "MEAN_MOTION_DOT": 2.079e-05, "MEAN_MOTION_DDOT": 0}, "tle": {"line1": "1 64694U 25141A   25342.28254830  .00002079  00000+0  37470-3 0  9991", "line2": "2 64694  98.0423 277.8764 0001494  82.4690 277.6684 14.67563212 23849"}}, "geometry": {"type": "Point", "coordinates": [119.27200392835269, 68.56428681062751]}}, {"type": "Feature", "properties": {"norad_id": 64876, "name": "IONOSFERA-M 3", "group": "resource", "lat": 78.66222831180208, "lon": -104.27135650473481, "alt_km": 811.5250795179772, "timestamp": "2025-12-08T13:49:31.451352+00:00", "meta": {"OBJECT_NAME": "IONOSFERA-M 3", "OBJECT_ID": "2025-155A", "EPOCH": "2025-12-08T04:59:29.971392", "MEAN_MOTION": 14.21439336, "ECCENTRICITY": 0.00023363, "INCLINATION": 98.5778, "RA_OF_ASC_NODE": 304.2025, "ARG_OF_PERICENTER": 67.1248, "MEAN_ANOMALY": 293.0176, "EPHEMERIS_TYPE": 0, "CLASSIFICATION_TYPE": "U", "NORAD_CAT_ID": 64876, "ELEMENT_SET_NO": 999, "REV_AT_EPOCH": 1927, "BSTAR": 0.00010142694, "MEAN_MOTION_DOT": 1.79e-06, "MEAN_MOTION_DDOT": 0}, "tle": {"line1": "1 64876U 25155A   25342.20798578  .00000179  00000+0  10143-3 0  9999", "line2": "2 64876  98.5778 304.2025 0002336  67.1248 293.0176 14.21439336 19278"}}, "geometry": {"type": "Point", "coordinates": [-104.27135650473481, 78.66222831180208]}}, {"type": "Feature", "properties": {"norad_id": 64877, "name": "IONOSFERA-M 4", "group": "resource", "lat": -79.07778087225333, "lon": 73.02141488458602, "alt_km": 828.9799530022974, "timestamp": "2025-12-08T13:49:31.451363+00:00", "meta": {"OBJECT_NAME": "IONOSFERA-M 4", "OBJECT_ID": "2025-155B", "EPOCH": "2025-12-08T07:31:21.758592", "MEAN_MOTION": 14.21440487, "ECCENTRICITY": 0.0001691, "INCLINATION": 98.5777, "RA_OF_ASC_NODE": 304.2246, "ARG_OF_PERICENTER": 67.874, "MEAN_ANOMALY": 292.2617, "EPHEMERIS_TYPE": 0, "CLASSIFICATION_TYPE": "U", "NORAD_CAT_ID": 64877, "ELEMENT_SET_NO": 999, "REV_AT_EPOCH": 1928, "BSTAR": 0.00010165844, "MEAN_MOTION_DOT": 1.8e-06, "MEAN_MOTION_DDOT": 0}, "tle": {"line1": "1 64877U 25155B   25342.31344628  .00000180  00000+0  10166-3 0  9992", "line2": "2 64877  98.5777 304.2246 0001691  67.8740 292.2617 14.21440487 19281"}}, "geometry": {"type": "Point", "coordinates": [73.02141488458602, -79.07778087225333]}}, {"type": "Feature", "properties": {"norad_id": 64899, "name": "MICROCARB", "group": "resource", "lat": 19.950575037495202, "lon": 55.06088309866011, "alt_km": 663.3216875241196, "timestamp": "2025-12-08T13:49:31.451373+00:00", "meta": {"OBJECT_NAME": "MICROCARB", "OBJECT_ID": "2025-156A", "EPOCH": "2025-12-08T05:34:37.247520", "MEAN_MOTION": 14.72046407, "ECCENTRICITY": 0.00168404, "INCLINATION": 98.0029, "RA_OF_ASC_NODE": 57.65, "ARG_OF_PERICENTER": 158.626, "MEAN_ANOMALY": 201.5654, "EPHEMERIS_TYPE": 0, "CLASSIFICATION_TYPE": "U", "NORAD_CAT_ID": 64899, "ELEMENT_SET_NO": 999, "REV_AT_EPOCH": 1987, "BSTAR": 0.00024023272, "MEAN_MOTION_DOT": 1.463e-05, "MEAN_MOTION_DDOT": 0}, "tle": {"line1": "1 64899U 25156A   25342.23237555  .00001463  00000+0  24023-3 0  9990", "line2": "2 64899  98.0029  57.6500 0016840 158.6260 201.5654 14.72046407 19879"}}, "geometry": {"type": "Point", "coordinates": [55.06088309866011, 19.950575037495202]}}, {"type": "Feature", "properties": {"norad_id": 64900, "name": "CO3D 3", "group": "resource", "lat": 60.5221130639544, "lon": 45.64723555428473, "alt_km": 498.7338334519545, "timestamp": "2025-12-08T13:49:31.451383+00:00", "meta": {"OBJECT_NAME": "CO3D 3", "OBJECT_ID": "2025-156B", "EPOCH": "2025-12-08T05:39:27.539424", "MEAN_MOTION": 15.20211807, "ECCENTRICITY": 0.00013183, "INCLINATION": 97.4342, "RA_OF_ASC_NODE": 58.6677, "ARG_OF_PERICENTER": 110.7986, "MEAN_ANOMALY": 249.339, "EPHEMERIS_TYPE": 0, "CLASSIFICATION_TYPE": "U", "NORAD_CAT_ID": 64900, "ELEMENT_SET_NO": 999, "REV_AT_EPOCH": 2052, "BSTAR": 0.00041215775, "MEAN_MOTION_DOT": 8.868e-05, "MEAN_MOTION_DDOT": 0}, "tle": {"line1": "1 64900U 25156B   25342.23573541  .00008868  00000+0  41216-3 0  9990", "line2": "2 64900  97.4342  58.6677 0001318 110.7986 249.3390 15.20211807 20520"}}, "geometry": {"type": "Point", "coordinates": [45.64723555428473, 60.5221130639544]}}]}